#dP2022  1  7  0  0  0.00000000      97 __u+U IGS14 FIT  IAC
## 2191 432000.00000000   900.00000000 59586 0.0000000000000
+  124   C01C02C03C04C05C06C07C08C09C10C11C12C13C14C16C19C20
+        C21C22C23C24C25C26C27C28C29C30C32C33C34C35C36C37C38
+        C39C40C41C42C43C44C45C46C59C60E01E02E03E04E05E07E08
+        E09E11E12E13E14E15E18E19E21E24E25E26E27E30E31E33E36
+        G01G02G03G04G05G06G07G08G09G10G11G12G13G14G15G16G17
+        G18G19G20G21G22G23G24G25G26G27G28G29G30G31G32J01J02
+        J03J07R01R02R03R04R05R07R08R09R11R12R13R14R15R17R18
+        R19R20R21R22R24  0  0  0  0  0  0  0  0  0  0  0  0
++        16 13 13 16 13  9  9  9  9  9  8  9  9  9  9  7  7
++         7  7  7  7  7  7  7  7  7  7  7  7  7  8  7  7  8
++         8  8  7  7  7  8  8  7 15 13  4  4  4  4  4  4  4
++         4  4  4  4  5  4  4  4  4  4  4  4  4  4  5  4  4
++         3  3  3  4  4  3  3  3  3  3  4  3  3  3  3  4  3
++         3  3  4  3  4  3  3  3  3  4  4  3  3  4  3  8  8
++        10 13  7  6  6  6  5  7  6  6  7  6  7  6  6  6  6
++         7  7  6  7  6  0  0  0  0  0  0  0  0  0  0  0  0
%c M  cc GPS ccc cccc cccc cccc cccc ccccc ccccc ccccc ccccc
%c cc cc ccc ccc cccc cccc cccc cccc ccccc ccccc ccccc ccccc
%f  1.2500000  1.025000000  0.00000000000  0.000000000000000
%f  0.0000000  0.000000000  0.00000000000  0.000000000000000
%i    0    0    0    0      0      0      0      0         0
%i    0    0    0    0      0      0      0      0         0
/* INFORMATION & ANALYSIS CENTER (IAC)            FINAL DATA
/* S/V CLOCKS ARE ALIGNED TO GNSS TIME                      
/* G:C1WC2W R:C1PC2P E:C1XC5X C:C2IC6I J:C1CC2S             
/* PCV:IGS14_2186 OL/AL:FES2004  NONE     YN ORB:CoN CLK:CoN
*  2022 01 07 22  0  0.00000000
PC01 -34337.919197  24426.606696    140.413944 999999.999999
PC02   4334.954491  41970.145966   1156.698129 999999.999999
PC03 -14855.531998  39463.957194   1030.719106 999999.999999
PC04 -39586.870084  14448.517853    -83.864206 999999.999999
PC05  21880.778136  36046.067677   1344.361866    357.622993
PC06 -10121.066864  40880.132373   3643.955716   -159.392030
PC07  -2842.906033  28666.912093 -30734.991917     27.366238
PC08 -17323.429502  24903.075077  29214.046680     41.435784
PC09  -6576.014886  41693.118050  -3945.104067   -415.425238
PC10   4034.591285  30609.958616 -28266.591387    139.127047
PC11 -13508.724843  19823.231110 -14158.783306   -284.592260
PC12 -15640.062447   1013.658295 -23043.919295   -432.513309
PC13 -10712.479381  25969.482514  31474.159774   -153.804792
PC14 -13353.829192   9308.221952  22690.478569    475.374210
PC16 -12290.593035  39756.564996   7698.501873     48.962512
PC19   4155.405852 -16380.580971 -22186.639485    912.742898
PC20  19019.414030  -2316.393479 -20270.627822   -802.424208
PC21 -23353.508075 -14046.365664   6053.835317   -959.578973
PC22 -13659.984764 -21548.927144 -11329.057383   -961.040225
PC23   4908.024030  15530.493745 -22661.072573   -966.470618
PC24 -26487.307219   8649.351967   1149.385474   -946.580839
PC25 -14238.898315  17848.354522 -16037.431305   -798.207592
PC26 -22608.500019  -3484.277971  15943.700002    796.714712
PC27  13835.616667   9578.170124  22249.363516    657.750462
PC28   3600.740823  25002.597652  11863.486630     18.179870
PC29   7934.891495 -26133.786516   5717.504721    498.330594
PC30  15757.381000 -11350.506065  20030.594108    490.631957
PC32  23436.005781  13920.968656  -5959.904126   -957.443485
PC33  -4197.924296  16366.887226  22209.919460   -955.915318
PC34 -15657.094805  12341.075498 -19542.293213   -496.943965
PC35  -4094.392366 -25170.183430 -11294.784819     82.540927
PC36  15117.466689 -17438.339107  15713.724490   -858.169150
PC37  21885.543191   4757.962703 -16655.105296   -934.323993
PC38 -23955.072499  26279.697651  22555.427402    202.406451
PC39 -12365.595903  38556.862994  12065.284826     34.579405
PC40  -7316.237563  22790.761594 -34699.215547    233.577376
PC41  13343.423004  21555.836413  11721.554864   -921.237431
PC42 -19625.839815   1537.249004  19823.589231   -929.687779
PC43  -8445.384087  25855.527722  -6297.959700   -949.452697
PC44 -14240.077533  -9289.730988 -22127.710569    524.189861
PC45  -5080.213166 -15340.588114  22747.636474    647.815162
PC46  26254.087827  -9531.203117    113.006480   -102.528952
PC59 -32240.398961  27152.877558    232.851277 999999.999999
PC60   7276.244464  41529.811017    213.431531     -0.288294
PE01   2799.379197 -16364.913979  24505.192763   -554.826110
PE02  -2577.671143  16401.411854 -24507.905317    272.101892
PE03   1788.002732  27151.152878  11636.771209   -514.676385
PE04 -14637.406596 -24896.313580   6477.521117   -937.841595
PE05 -12361.178895  13496.100492  23261.321161   -220.471671
PE07  19125.259241   7837.007640 -21188.669994   -625.990973
PE08  14903.897156  24624.331636  -6897.881823   5875.843425
PE09 -19021.760422  -7588.235490  21372.511961   5402.895018
PE11 -20299.893497   3306.208787 -21293.558246   4727.129115
PE12  -7263.990492 -15895.813662 -23880.696311   4821.428466
PE13  19989.862257  -2747.962185  21666.151137    425.428145
PE14   8498.783006 -20133.497814  14212.162209  -1702.254552
PE15   7141.736941  15946.143985  23906.005714    770.651818
PE18 -16977.157548  12166.127810 -22495.646972  -1873.543709
PE19     62.129433 -26226.053519 -13717.861973    471.882571
PE21  21809.840250  -8924.346808  17918.320801   -709.902240
PE24 -29161.421787  -4953.037448    457.439967  -1322.860968
PE25 -21981.149943   8787.355349 -17757.285165   -559.509960
PE26  20822.565774 -20258.874744   5695.234363   -661.458172
PE27  29322.703217   4063.325615    680.683011   -204.474156
PE30  18461.845844  15064.075090 -17586.608374   -173.632913
PE31 -19507.963310 -14564.139162  16834.586477   -490.441356
PE33   9880.591368 -25167.582761 -12029.817894   -460.622017
PE36 -21019.690406  19739.764209  -6688.722235   -314.889001
PG01  11308.723933 -20890.113302 -11790.657074    463.187809
PG02 -20700.121702  14220.264263  -8143.880897   -648.026887
PG03   3208.370036 -14698.096360 -21994.886630    -69.585055
PG04   1652.347841 -24822.288173  -9189.694156   -195.959640
PG05 -19034.119467   7302.498062  16940.970701    -67.118314
PG06 -17929.586922   -997.216793 -19523.051783    164.447380
PG07  -4120.853729 -16379.128588  20763.641549    299.497221
PG08   8339.465140 -17564.505284  17919.864104    -51.221935
PG09  -7566.998491 -25386.913741   1585.200471   -358.580734
PG10  22937.661193  11870.563005   6965.454410   -287.902921
PG11 -22594.293653  10228.269371  -9490.935988    -21.963792
PG12  -6655.740681  13608.706336 -22070.771023   -152.468648
PG13 -13233.967589  10028.359640  20539.432209    241.773351
PG14 -22118.150152 -12986.120627   7018.801518    -67.371215
PG15  -6397.219071  19014.525190  16842.694000    -93.244063
PG16  21932.349037  -2103.302086  14901.145257   -452.340127
PG17 -12699.481738 -18167.081672 -14165.972921    558.319501
PG18   3794.579889  15866.887570  20934.983716    265.143844
PG19 -14743.016395 -10205.602976 -19913.973348    102.592620
PG20 -24928.695418   2595.244376   8382.658270    517.277797
PG21  17080.853144 -19818.296266  -1098.452177    155.617490
PG22  12362.562493 -12384.247263 -19750.229466   -422.814676
PG23  14343.829275  15488.906967  16159.741761     13.504630
PG24 -13027.625855  21880.750662  -7040.044108    277.034263
PG25   6909.573401  16639.006192 -19882.741188    267.560611
PG26  26203.953448   4391.932359   2829.215948    172.324503
PG27  13583.554772  -6524.997215  21649.358338     54.890496
PG28 -24502.815128  -9898.308671   -180.153607    426.831835
PG29   3078.369562  26310.545430  -1506.398281   -464.401426
PG30 -12940.132367  -9441.985619  21272.519815   -505.137104
PG31  19905.944063   -758.748211 -17911.663272   -158.860749
PG32  15373.498572  13840.267427 -16645.651508    -46.967183
PJ01 -26788.935716  20390.037149  30374.223351    305.410964
PJ02 -32323.746058  15015.804802 -17981.841694     -0.680787
PJ03 -21712.038029  33072.616055  -9687.602072     -0.121400
PJ07 -25341.845496  33700.960951     57.208592     -0.006651
PR01  10848.905205  -4137.766272 -22713.821027      7.237520
PR02  -4646.395538 -18388.606168 -16982.613514    505.806349
PR03 -15761.703507 -19979.683469  -1160.397830     49.525764
PR04 -17704.682045 -10500.234067  15079.380618    122.517662
PR05  -9939.859020   4815.142889  22998.273325     85.565234
PR07  16014.058902  19883.912817    562.623920     30.455576
PR08  17778.947657  10419.236440 -15002.599725    -62.954081
PR09  -5991.876094  12013.135554 -21689.315253     32.904470
PR11  24131.450223   -499.472489  -8231.360550     47.608393
PR12  21724.502505  -8711.636202  10191.546984    293.056582
PR13   7152.686129 -11766.862883  21453.553862    -16.742283
PR14 -12905.614591  -7833.942356  20570.203249     72.979772
PR15 -24360.276908    496.294188   7556.486746     99.056410
PR17  -2948.332632 -16679.787788 -19072.568509    490.583486
PR18 -10930.850395   -387.902082 -23026.779950    103.116630
PR19 -13680.800881  14802.283483 -15624.462593   -173.593450
PR20  -8203.086148  23888.266942   3739.147613    -62.651266
PR21   3649.307829  15506.335310  19920.169171   -268.324510
PR22  11151.558267   -408.754147  22920.718317   -156.610164
PR24   7282.895403 -24060.890871  -4342.993286     74.667838
EOF
